start=new Date('2022-10-10T00:00:00.000Z').valueOf();
sats=[{"PERIAPSIS":"546.017","RA_OF_ASC_NODE":"338.8000","APOAPSIS":"548.346","MEAN_MOTION_DDOT":"0.0000000000000","CENTER_NAME":"EARTH","GP_ID":"214601593","MEAN_MOTION":"15.06410430","MEAN_ELEMENT_THEORY":"SGP4","MEAN_ANOMALY":"304.5284","ELEMENT_SET_NO":"999","CLASSIFICATION_TYPE":"U","LAUNCH_DATE":"2021-05-15","MEAN_MOTION_DOT":"0.00007077","TLE_LINE2":"2 48597  53.0542 338.8000 0001682  55.5864 304.5284 15.06410430 78405","FILE":"3598879","ECCENTRICITY":"0.00016820","NORAD_CAT_ID":"48597","TIME_SYSTEM":"UTC","EPOCH":"2022-10-09T20:55:34.860864","SITE":"AFETR","PERIOD":"95.591","REF_FRAME":"TEME","BSTAR":"0.00049341000000","EPHEMERIS_TYPE":"0","OBJECT_TYPE":"PAYLOAD","INCLINATION":"53.0542","RCS_SIZE":"LARGE","DECAY_DATE":null,"REV_AT_EPOCH":"7840","COUNTRY_CODE":"US","OBJECT_ID":"2021-041AW","TLE_LINE1":"1 48597U 21041AW  22282.87193126  .00007077  00000-0  49341-3 0  9999","SEMIMAJOR_AXIS":"6925.317","ARG_OF_PERICENTER":"55.5864","OBJECT_NAME":"STARLINK-2255"},{"RA_OF_ASC_NODE":"340.5807","PERIAPSIS":"546.082","GP_ID":"214560105","MEAN_MOTION":"15.06400546","APOAPSIS":"548.342","MEAN_MOTION_DDOT":"0.0000000000000","CENTER_NAME":"EARTH","ELEMENT_SET_NO":"999","CLASSIFICATION_TYPE":"U","MEAN_ELEMENT_THEORY":"SGP4","MEAN_ANOMALY":"292.0878","EPOCH":"2022-10-09T11:27:39.380832","LAUNCH_DATE":"2021-05-15","MEAN_MOTION_DOT":"0.00001493","TLE_LINE2":"2 48598  53.0557 340.5807 0001632  68.0284 292.0878 15.06400546 77537","FILE":"3597861","NORAD_CAT_ID":"48598","ECCENTRICITY":"0.00016320","TIME_SYSTEM":"UTC","PERIOD":"95.592","SITE":"AFETR","OBJECT_TYPE":"PAYLOAD","INCLINATION":"53.0557","RCS_SIZE":"LARGE","REF_FRAME":"TEME","BSTAR":"0.00011910000000","EPHEMERIS_TYPE":"0","COUNTRY_CODE":"US","OBJECT_ID":"2021-041AX","DECAY_DATE":null,"REV_AT_EPOCH":"7753","OBJECT_NAME":"STARLINK-2256","TLE_LINE1":"1 48598U 21041AX  22282.47753913  .00001493  00000-0  11910-3 0  9999","SEMIMAJOR_AXIS":"6925.347","ARG_OF_PERICENTER":"68.0284"},{"RCS_SIZE":"LARGE","OBJECT_TYPE":"PAYLOAD","INCLINATION":"53.0552","BSTAR":"0.00004402700000","EPHEMERIS_TYPE":"0","REF_FRAME":"TEME","PERIOD":"95.592","SITE":"AFETR","OBJECT_NAME":"STARLINK-2274","TLE_LINE1":"1 48599U 21041AY  22282.50379679  .00000374  00000-0  44027-4 0  9990","SEMIMAJOR_AXIS":"6925.328","ARG_OF_PERICENTER":"49.2808","OBJECT_ID":"2021-041AY","COUNTRY_CODE":"US","REV_AT_EPOCH":"7870","DECAY_DATE":null,"GP_ID":"214559353","MEAN_MOTION":"15.06406566","MEAN_MOTION_DDOT":"0.0000000000000","CENTER_NAME":"EARTH","APOAPSIS":"548.430","RA_OF_ASC_NODE":"315.4676","PERIAPSIS":"545.957","EPOCH":"2022-10-09T12:05:28.042656","FILE":"3597861","NORAD_CAT_ID":"48599","ECCENTRICITY":"0.00017860","TIME_SYSTEM":"UTC","LAUNCH_DATE":"2021-05-15","MEAN_MOTION_DOT":"0.00000374","TLE_LINE2":"2 48599  53.0552 315.4676 0001786  49.2808 310.8336 15.06406566 78707","ELEMENT_SET_NO":"999","CLASSIFICATION_TYPE":"U","MEAN_ELEMENT_THEORY":"SGP4","MEAN_ANOMALY":"310.8336"},{"TLE_LINE1":"1 48600U 21041AZ  22282.87285729 -.00000598  00000-0 -21277-4 0  9997","SEMIMAJOR_AXIS":"6925.358","OBJECT_NAME":"STARLINK-2275","ARG_OF_PERICENTER":"58.7111","COUNTRY_CODE":"US","OBJECT_ID":"2021-041AZ","DECAY_DATE":null,"REV_AT_EPOCH":"7854","INCLINATION":"53.0569","OBJECT_TYPE":"PAYLOAD","RCS_SIZE":"LARGE","REF_FRAME":"TEME","EPHEMERIS_TYPE":"0","BSTAR":"-0.00002127700000","PERIOD":"95.592","SITE":"AFETR","EPOCH":"2022-10-09T20:56:54.869856","TLE_LINE2":"2 48600  53.0569 328.7997 0001781  58.7111 301.4053 15.06396825 78548","LAUNCH_DATE":"2021-05-15","MEAN_MOTION_DOT":"-0.00000598","ECCENTRICITY":"0.00017810","FILE":"3598879","NORAD_CAT_ID":"48600","TIME_SYSTEM":"UTC","CLASSIFICATION_TYPE":"U","ELEMENT_SET_NO":"999","MEAN_ANOMALY":"301.4053","MEAN_ELEMENT_THEORY":"SGP4","MEAN_MOTION":"15.06396825","GP_ID":"214603342","APOAPSIS":"548.457","CENTER_NAME":"EARTH","MEAN_MOTION_DDOT":"0.0000000000000","RA_OF_ASC_NODE":"328.7997","PERIAPSIS":"545.990"},{"REF_FRAME":"TEME","EPHEMERIS_TYPE":"0","BSTAR":"0.00002340400000","INCLINATION":"53.0549","OBJECT_TYPE":"PAYLOAD","RCS_SIZE":"LARGE","SITE":"AFETR","PERIOD":"95.592","TLE_LINE1":"1 48602U 21041BB  22282.47063223  .00000067  00000-0  23404-4 0  9991","OBJECT_NAME":"STARLINK-2713","SEMIMAJOR_AXIS":"6925.358","ARG_OF_PERICENTER":"52.1845","DECAY_DATE":null,"REV_AT_EPOCH":"7868","COUNTRY_CODE":"US","OBJECT_ID":"2021-041BB","APOAPSIS":"548.429","CENTER_NAME":"EARTH","MEAN_MOTION_DDOT":"0.0000000000000","MEAN_MOTION":"15.06396975","GP_ID":"214559855","PERIAPSIS":"546.017","RA_OF_ASC_NODE":"315.6086","TLE_LINE2":"2 48602  53.0549 315.6086 0001741  52.1845 307.9302 15.06396975 78689","LAUNCH_DATE":"2021-05-15","MEAN_MOTION_DOT":"0.00000067","TIME_SYSTEM":"UTC","FILE":"3597861","NORAD_CAT_ID":"48602","ECCENTRICITY":"0.00017410","EPOCH":"2022-10-09T11:17:42.624672","MEAN_ANOMALY":"307.9302","MEAN_ELEMENT_THEORY":"SGP4","CLASSIFICATION_TYPE":"U","ELEMENT_SET_NO":"999"},{"ELEMENT_SET_NO":"999","CLASSIFICATION_TYPE":"U","MEAN_ELEMENT_THEORY":"SGP4","MEAN_ANOMALY":"313.0168","EPOCH":"2022-10-09T18:45:30.955392","MEAN_MOTION_DOT":"0.00001021","LAUNCH_DATE":"2021-05-15","TLE_LINE2":"2 48603  53.0552 309.1988 0001954  47.0985 313.0168 15.06400322 78812","FILE":"3598879","NORAD_CAT_ID":"48603","ECCENTRICITY":"0.00019540","TIME_SYSTEM":"UTC","RA_OF_ASC_NODE":"309.1988","PERIAPSIS":"545.859","GP_ID":"214601840","MEAN_MOTION":"15.06400322","APOAPSIS":"548.566","MEAN_MOTION_DDOT":"0.0000000000000","CENTER_NAME":"EARTH","COUNTRY_CODE":"US","OBJECT_ID":"2021-041BC","DECAY_DATE":null,"REV_AT_EPOCH":"7881","ARG_OF_PERICENTER":"47.0985","TLE_LINE1":"1 48603U 21041BC  22282.78160828  .00001021  00000-0  87462-4 0  9990","SEMIMAJOR_AXIS":"6925.348","OBJECT_NAME":"STARLINK-2714","PERIOD":"95.592","SITE":"AFETR","OBJECT_TYPE":"PAYLOAD","INCLINATION":"53.0552","RCS_SIZE":"LARGE","REF_FRAME":"TEME","BSTAR":"0.00008746200000","EPHEMERIS_TYPE":"0"},{"INCLINATION":"53.0549","OBJECT_TYPE":"PAYLOAD","RCS_SIZE":"LARGE","REF_FRAME":"TEME","EPHEMERIS_TYPE":"0","BSTAR":"0.00060677000000","PERIOD":"95.592","SITE":"AFETR","TLE_LINE1":"1 48604U 21041BD  22282.84981988  .00008770  00000-0  60677-3 0  9992","OBJECT_NAME":"STARLINK-2757","SEMIMAJOR_AXIS":"6925.320","ARG_OF_PERICENTER":"48.5322","COUNTRY_CODE":"US","OBJECT_ID":"2021-041BD","DECAY_DATE":null,"REV_AT_EPOCH":"7840","MEAN_MOTION":"15.06409300","GP_ID":"214602589","APOAPSIS":"548.538","CENTER_NAME":"EARTH","MEAN_MOTION_DDOT":"0.0000000000000","RA_OF_ASC_NODE":"338.9094","PERIAPSIS":"545.833","EPOCH":"2022-10-09T20:23:44.437632","TLE_LINE2":"2 48604  53.0549 338.9094 0001953  48.5322 311.5835 15.06409300 78401","MEAN_MOTION_DOT":"0.00008770","LAUNCH_DATE":"2021-05-15","ECCENTRICITY":"0.00019530","FILE":"3598879","NORAD_CAT_ID":"48604","TIME_SYSTEM":"UTC","CLASSIFICATION_TYPE":"U","ELEMENT_SET_NO":"999","MEAN_ANOMALY":"311.5835","MEAN_ELEMENT_THEORY":"SGP4"},{"DECAY_DATE":null,"REV_AT_EPOCH":"7674","COUNTRY_CODE":"US","OBJECT_ID":"2021-044A","OBJECT_NAME":"STARLINK-2758","TLE_LINE1":"1 48638U 21044A   22282.80142007  .00001431  00000-0  11495-3 0  9990","SEMIMAJOR_AXIS":"6925.365","ARG_OF_PERICENTER":"62.3322","SITE":"AFETR","PERIOD":"95.592","REF_FRAME":"TEME","BSTAR":"0.00011495000000","EPHEMERIS_TYPE":"0","OBJECT_TYPE":"PAYLOAD","INCLINATION":"53.0545","RCS_SIZE":"LARGE","MEAN_ELEMENT_THEORY":"SGP4","MEAN_ANOMALY":"297.7843","ELEMENT_SET_NO":"999","CLASSIFICATION_TYPE":"U","LAUNCH_DATE":"2021-05-26","MEAN_MOTION_DOT":"0.00001431","TLE_LINE2":"2 48638  53.0545 314.1285 0001734  62.3322 297.7843 15.06394543 76744","NORAD_CAT_ID":"48638","FILE":"3598047","ECCENTRICITY":"0.00017340","TIME_SYSTEM":"UTC","EPOCH":"2022-10-09T19:14:02.694048","PERIAPSIS":"546.029","RA_OF_ASC_NODE":"314.1285","APOAPSIS":"548.431","MEAN_MOTION_DDOT":"0.0000000000000","CENTER_NAME":"EARTH","GP_ID":"214564804","MEAN_MOTION":"15.06394543"},{"DECAY_DATE":null,"REV_AT_EPOCH":"7584","COUNTRY_CODE":"US","OBJECT_ID":"2021-044B","TLE_LINE1":"1 48639U 21044B   22282.78667054  .00000447  00000-0  48918-4 0  9999","SEMIMAJOR_AXIS":"6925.331","ARG_OF_PERICENTER":"48.1080","OBJECT_NAME":"STARLINK-2739","SITE":"AFETR","PERIOD":"95.592","REF_FRAME":"TEME","BSTAR":"0.00004891800000","EPHEMERIS_TYPE":"0","OBJECT_TYPE":"PAYLOAD","INCLINATION":"53.0553","RCS_SIZE":"LARGE","MEAN_ELEMENT_THEORY":"SGP4","MEAN_ANOMALY":"312.0071","ELEMENT_SET_NO":"999","CLASSIFICATION_TYPE":"U","LAUNCH_DATE":"2021-05-26","MEAN_MOTION_DOT":"0.00000447","TLE_LINE2":"2 48639  53.0553 314.1997 0001898  48.1080 312.0071 15.06405580 75846","FILE":"3598879","ECCENTRICITY":"0.00018980","NORAD_CAT_ID":"48639","TIME_SYSTEM":"UTC","EPOCH":"2022-10-09T18:52:48.334656","PERIAPSIS":"545.882","RA_OF_ASC_NODE":"314.1997","APOAPSIS":"548.511","MEAN_MOTION_DDOT":"0.0000000000000","CENTER_NAME":"EARTH","GP_ID":"214602847","MEAN_MOTION":"15.06405580"},{"CLASSIFICATION_TYPE":"U","ELEMENT_SET_NO":"999","MEAN_ANOMALY":"306.3028","MEAN_ELEMENT_THEORY":"SGP4","EPOCH":"2022-10-09T10:45:54.543744","TLE_LINE2":"2 48640  53.0546 315.9921 0001754  53.8123 306.3028 15.06399320 75783","LAUNCH_DATE":"2021-05-26","MEAN_MOTION_DOT":"-0.00000985","NORAD_CAT_ID":"48640","FILE":"3597861","TIME_SYSTEM":"UTC","ECCENTRICITY":"0.00017540","RA_OF_ASC_NODE":"315.9921","PERIAPSIS":"546.001","MEAN_MOTION":"15.06399320","GP_ID":"214560359","APOAPSIS":"548.430","CENTER_NAME":"EARTH","MEAN_MOTION_DDOT":"0.0000000000000","COUNTRY_CODE":"US","OBJECT_ID":"2021-044C","DECAY_DATE":null,"REV_AT_EPOCH":"7578","TLE_LINE1":"1 48640U 21044C   22282.44854796 -.00000985  00000-0 -47201-4 0  9998","OBJECT_NAME":"STARLINK-2736","SEMIMAJOR_AXIS":"6925.351","ARG_OF_PERICENTER":"53.8123","PERIOD":"95.592","SITE":"AFETR","INCLINATION":"53.0546","OBJECT_TYPE":"PAYLOAD","RCS_SIZE":"LARGE","REF_FRAME":"TEME","EPHEMERIS_TYPE":"0","BSTAR":"-0.00004720100000"}];
